{
  "version": 0.6,
  "generator": "Overpass API 0.7.62.1 084b4234",
  "osm3s": {
    "timestamp_osm_base": "2024-10-14T14:56:16Z",
    "timestamp_areas_base": "2024-10-09T00:21:11Z",
    "copyright": "The data included in this document is from www.openstreetmap.org. The data is made available under ODbL."
  },
  "elements": [

{
  "type": "way",
  "id": 4363935,
  "nodes": [
    259183163,
    1720327113,
    1720327110,
    1720327106,
    259183164,
    1720327104,
    1720327098,
    259183165,
    259183166,
    1720327094,
    259183167,
    259183168,
    10921434601,
    1839804209,
    259183169,
    1857930036,
    1857930055,
    1839804215,
    259183171,
    4948899038,
    5940549236,
    259183173,
    4948906658,
    1839804218,
    259183174,
    366218564,
    259183175
  ],
  "tags": {
    "highway": "residential",
    "maxspeed": "20 mph",
    "name": "Manor Road"
  }
},
{
  "type": "way",
  "id": 23911944,
  "nodes": [
    259181667,
    10852911562,
    259181668,
    1720327197,
    1720327196,
    10852911564,
    2123741867,
    2123741870,
    259181669
  ],
  "tags": {
    "highway": "residential",
    "maxspeed": "20 mph",
    "name": "Orwell Drive"
  }
},
{
  "type": "way",
  "id": 23911946,
  "nodes": [
    259181680,
    259181681
  ],
  "tags": {
    "highway": "residential",
    "maxspeed": "20 mph",
    "name": "Chelmer Grove",
    "source:name": "OS_OpenData_Locator"
  }
},
{
  "type": "way",
  "id": 23911954,
  "nodes": [
    285977639,
    366218558,
    366218566
  ],
  "tags": {
    "highway": "residential",
    "maxspeed": "20 mph",
    "name": "Lambourn Road"
  }
},
{
  "type": "way",
  "id": 23911986,
  "nodes": [
    255084522,
    1720327149,
    259182431,
    10861980712,
    259182432,
    259182433,
    1857930031,
    10864270305,
    259182434,
    366218556,
    259182600,
    1839845628,
    259182437,
    10775328440,
    259182438,
    1839804242,
    1839845620,
    259182439,
    1839804265,
    1839804263,
    1839804246,
    1839804205,
    1839804230,
    1839804232,
    1839804226,
    1839804221,
    1839804224,
    1839804211,
    1839804213,
    2775718143,
    366218564
  ],
  "tags": {
    "highway": "residential",
    "maxspeed": "20 mph",
    "name": "Hurn Lane"
  }
},
{
  "type": "way",
  "id": 23911995,
  "nodes": [
    259182520,
    2104919960,
    10861975593,
    259182521,
    10861975594,
    259182589,
    10861975595,
    259182523,
    10861975596,
    259182524,
    366218557,
    259182525,
    259182526,
    10775328436,
    259182527
  ],
  "tags": {
    "highway": "residential",
    "maxspeed": "20 mph",
    "name": "Torridge Road"
  }
},
{
  "type": "way",
  "id": 23912003,
  "nodes": [
    259181429,
    259182572,
    10852891714,
    10852891715,
    259182573,
    2104919915,
    10852891647,
    366218559,
    285976530,
    10852866785,
    259182575,
    2104919917,
    259182576,
    259182577,
    366218561,
    2104890934,
    1413096171,
    259182579,
    6404061932,
    259182580,
    1413096198,
    1413096181,
    2104881021,
    259182581
  ],
  "tags": {
    "highway": "residential",
    "maxspeed": "20 mph",
    "name": "Windrush Road"
  }
},
{
  "type": "way",
  "id": 23912018,
  "nodes": [
    366218559,
    2104919909,
    10852891649,
    10852891648,
    10852891652,
    259182588,
    10852891651,
    10852891650,
    259182525
  ],
  "tags": {
    "highway": "residential",
    "maxspeed": "20 mph",
    "name": "Wansbeck Road"
  }
},
{
  "type": "way",
  "id": 23912033,
  "nodes": [
    259182589,
    1857930029,
    10861980572,
    1857930042,
    1857930034,
    2261758158,
    259182591,
    366218556
  ],
  "tags": {
    "highway": "residential",
    "maxspeed": "20 mph",
    "name": "Marden Road"
  }
},
{
  "type": "way",
  "id": 23912035,
  "nodes": [
    366218557,
    11222726660,
    259182599,
    11222726661,
    11222726662,
    1839845630,
    259182600
  ],
  "tags": {
    "highway": "residential",
    "maxspeed": "20 mph",
    "name": "Hurn Lane"
  }
},
{
  "type": "way",
  "id": 23912037,
  "nodes": [
    366218561,
    2104890956,
    259182624,
    2104890953,
    259182625,
    6994577004,
    11219554932,
    8091290554,
    11219652438,
    2104881006,
    259182526
  ],
  "tags": {
    "highway": "residential",
    "maxspeed": "20 mph",
    "name": "Walden Road"
  }
},
{
  "type": "way",
  "id": 23912047,
  "nodes": [
    10928265055,
    2195650032,
    2195650034,
    2195650050,
    2195650031,
    2195650033,
    2195650048,
    2195650055,
    2195650052,
    2195650047,
    2195650043,
    2195650046,
    2195650044,
    2195650042,
    2195650045,
    2195650038,
    2195650039,
    2195650036,
    2195650035
  ],
  "tags": {
    "highway": "residential",
    "maxspeed": "20 mph"
  }
},
{
  "type": "way",
  "id": 23912051,
  "nodes": [
    259182844,
    259182845,
    10864293676,
    259182846,
    10861980768,
    1857930020,
    259182433
  ],
  "tags": {
    "highway": "residential",
    "name": "Dene Close"
  }
},
{
  "type": "way",
  "id": 23912054,
  "nodes": [
    1839845614,
    1839845616,
    1839845634,
    1839845626,
    1839845638,
    1839806082,
    1839806088,
    1839806074,
    1839806052,
    1839806071,
    5940549237,
    259182882,
    259182935,
    1857930009,
    1857930007,
    1857930001,
    1857930044,
    1857929979
  ],
  "tags": {
    "highway": "residential",
    "maxspeed": "20 mph",
    "name": "Waveney Road"
  }
},
{
  "type": "way",
  "id": 23912058,
  "nodes": [
    1839845646,
    1839845632,
    1839845601,
    1857929991,
    1839845598,
    1839845592,
    11393909761,
    1839845590,
    3127520496
  ],
  "tags": {
    "highway": "residential",
    "maxspeed": "20 mph",
    "name": "Medway Close",
    "source:name": "OS_OpenData_Locator"
  }
},
{
  "type": "way",
  "id": 23912061,
  "nodes": [
    259182931,
    1857929993,
    259183012,
    1857929973,
    1857929967,
    259182933,
    1857930040,
    259182934,
    10864306779,
    259182935
  ],
  "tags": {
    "highway": "residential",
    "maxspeed": "20 mph",
    "name": "Conway Green",
    "source:name": "OS_OpenData_Locator"
  }
},
{
  "type": "way",
  "id": 23912063,
  "nodes": [
    1857930036,
    3127523563,
    1857930015,
    1857929979,
    1857929965,
    3127520506,
    3127520496
  ],
  "tags": {
    "highway": "residential",
    "maxspeed": "20 mph",
    "name": "Medway Drive",
    "oneway": "yes",
    "source": "Bing;survey"
  }
},
{
  "type": "way",
  "id": 23912064,
  "nodes": [
    259182437,
    259182987,
    1857930058,
    259182988,
    259182882
  ],
  "tags": {
    "highway": "residential",
    "maxspeed": "20 mph",
    "name": "Evenlode Way"
  }
},
{
  "type": "way",
  "id": 23912081,
  "nodes": [
    259183012,
    259183013,
    1857929981,
    1857929978
  ],
  "tags": {
    "highway": "residential",
    "name": "Conway Green",
    "source:name": "OS_OpenData_Locator"
  }
},
{
  "type": "way",
  "id": 23912108,
  "nodes": [
    259183186,
    11387868155,
    259183187,
    1720327084,
    259183188,
    259183167
  ],
  "tags": {
    "highway": "residential",
    "maxspeed": "20 mph",
    "name": "Lyndhurst Road",
    "source:name": "OS_OpenData_Locator"
  }
},
{
  "type": "way",
  "id": 24376782,
  "nodes": [
    259183453,
    264495682,
    4948906654,
    264495683,
    1839821852,
    264495684,
    4948906656,
    264495685,
    264495686,
    1839845552,
    4948906663,
    264495687,
    1886013137,
    10829819969,
    10829819971,
    4948906661,
    264495688,
    4948906657,
    1886013150,
    11383876639,
    264495689,
    11383839152,
    4948899037,
    259183173
  ],
  "tags": {
    "highway": "residential",
    "maxspeed": "20 mph",
    "name": "Lytes Cary Road",
    "source:name": "OS OpenData Locator"
  }
},
{
  "type": "way",
  "id": 25568049,
  "nodes": [
    255084531,
    278695348,
    1720327026,
    1720327032,
    278695349,
    278695350,
    1720327041,
    1720327044,
    278695354,
    278695352
  ],
  "tags": {
    "highway": "residential",
    "maxspeed": "20 mph",
    "name": "Sunnymead",
    "source:name": "OS_OpenData_Locator"
  }
},
{
  "type": "way",
  "id": 25568051,
  "nodes": [
    278695354,
    278695355,
    1839845608,
    278695356
  ],
  "tags": {
    "highway": "residential",
    "maxspeed": "20 mph",
    "name": "Sunnymead",
    "source:name": "OS_OpenData_Locator"
  }
},
{
  "type": "way",
  "id": 25568053,
  "nodes": [
    278695379,
    278695359,
    1839798714,
    1839798716,
    1839798718
  ],
  "tags": {
    "highway": "residential",
    "maxspeed": "20 mph",
    "name": "Wayford Close",
    "source:name": "OS_OpenData_Locator"
  }
},
{
  "type": "way",
  "id": 25568055,
  "nodes": [
    1839798728,
    1839804267,
    11383839092,
    278695369,
    278695370
  ],
  "tags": {
    "highway": "residential",
    "maxspeed": "20 mph",
    "name": "Martock Road",
    "source:name": "OS_OpenData_Locator"
  }
},
{
  "type": "way",
  "id": 25568057,
  "nodes": [
    264495689,
    278695379,
    1839798721,
    11383839091,
    4948906662,
    1839798725,
    1839798728,
    1839798731,
    4948906664,
    1839798734,
    1839798737,
    1839798729,
    10829819974,
    1839798739,
    11383843110,
    1839798742,
    1839861434,
    1839798699,
    11383848908,
    1839798703,
    1839798711,
    1839798707
  ],
  "tags": {
    "highway": "residential",
    "maxspeed": "20 mph",
    "name": "Martock Road",
    "source:name": "OS_OpenData_Locator"
  }
},
{
  "type": "way",
  "id": 26100107,
  "nodes": [
    259182581,
    2104866724,
    1234890365,
    2104866721,
    259182582,
    2104836672,
    2104835801,
    2104835778,
    1839845636,
    259182438
  ],
  "tags": {
    "highway": "residential",
    "maxspeed": "20 mph",
    "name": "Minsmere Road"
  }
},
{
  "type": "way",
  "id": 26122087,
  "nodes": [
    259181709,
    2104919912,
    2104919920,
    285967958
  ],
  "tags": {
    "highway": "service",
    "maxspeed": "20 mph"
  }
},
{
  "type": "way",
  "id": 26122101,
  "nodes": [
    259182580,
    6404061930,
    285968093,
    10942086955,
    2104881022,
    2104897145,
    10829525058,
    2104890936,
    2104881005
  ],
  "tags": {
    "highway": "residential",
    "maxspeed": "20 mph",
    "name": "Teviot Road"
  }
},
{
  "type": "way",
  "id": 26602335,
  "nodes": [
    259181669,
    2123741883,
    2123741875,
    259181670,
    2123741873,
    259181681,
    259181435
  ],
  "tags": {
    "highway": "residential",
    "maxspeed": "20 mph",
    "name": "Clyde Avenue"
  }
},
{
  "type": "way",
  "id": 32561466,
  "nodes": [
    366218554,
    1234890377,
    11217988588,
    6562038730,
    6562038723,
    259181411,
    11217988748,
    2104952630,
    259181412,
    259181413,
    2104952627,
    10930186726,
    259181465,
    8662890505,
    259181414,
    8662890504,
    259181415,
    11217999829,
    3936077353,
    259181417,
    10930186725,
    1234890403,
    2104919942,
    2104919927,
    259181419,
    259181421,
    10930186728,
    259181423,
    10930186730,
    10930186729,
    259181425,
    259181667,
    259181429,
    259181431,
    2123741868,
    2104919897,
    259182520,
    10861980607,
    2104919972,
    259181435,
    259181436,
    10861980691,
    2104919899,
    1857930003,
    259182432
  ],
  "tags": {
    "highway": "residential",
    "maxspeed": "20 mph",
    "name": "Chandag Road"
  }
},
{
  "type": "way",
  "id": 32561468,
  "nodes": [
    366218558,
    259181709,
    259181425
  ],
  "tags": {
    "highway": "residential",
    "maxspeed": "20 mph",
    "name": "Lambourn Road"
  }
},
{
  "type": "way",
  "id": 107453895,
  "nodes": [
    3127520496,
    259182931,
    11393909762,
    1857930005,
    1839845603,
    1839845612,
    10864270306,
    1857930011,
    259182434
  ],
  "tags": {
    "highway": "residential",
    "lanes": "2",
    "name": "Medway Drive",
    "surface": "asphalt"
  }
},
{
  "type": "way",
  "id": 107453899,
  "nodes": [
    259182439,
    1234890423,
    1234890397,
    2104835784,
    2104835788,
    2104835774
  ],
  "tags": {
    "highway": "residential",
    "maxspeed": "20 mph",
    "name": "Witham Road",
    "source:name": "OS_OpenData_Locator",
    "source:track": "Bing"
  }
},
{
  "type": "way",
  "id": 107453910,
  "nodes": [
    1234890365,
    1234890327
  ],
  "tags": {
    "highway": "residential",
    "maxspeed": "20 mph",
    "name": "Calder Close",
    "source:name": "OS_OpenData_Locator",
    "source:track": "Bing"
  }
},
{
  "type": "way",
  "id": 127728062,
  "nodes": [
    1413096181,
    1413096194,
    2104881026,
    1413096182,
    1413096205
  ],
  "tags": {
    "highway": "service",
    "maxspeed": "20 mph",
    "service": "parking_aisle"
  }
},
{
  "type": "way",
  "id": 159965916,
  "nodes": [
    1720327215,
    259181668
  ],
  "tags": {
    "highway": "residential",
    "maxspeed": "20 mph",
    "name": "Trent Grove",
    "source": "bing",
    "source:name": "OS OpenData StreetView"
  }
},
{
  "type": "way",
  "id": 159965921,
  "nodes": [
    1720327211,
    1720327215,
    1720327241
  ],
  "tags": {
    "highway": "residential",
    "maxspeed": "20 mph",
    "name": "Trent Grove",
    "source": "bing",
    "source:name": "OS OpenData StreetView"
  }
},
{
  "type": "way",
  "id": 159965922,
  "nodes": [
    26152720,
    1720327435,
    2123700700,
    1720327426,
    10957449840,
    1720327410,
    10929228318,
    10929228243,
    7769120735,
    1720327398,
    1720327356,
    1720327343,
    1720327339,
    1858619083,
    1720327333,
    1720327329,
    1720327313,
    1720327304,
    1720327297,
    1720327289,
    1720327287,
    255084516,
    1720327259,
    1720327253,
    1720327248,
    1720327246,
    259182768,
    2195644900,
    1720327198,
    10539960222,
    1720327163,
    1720327154,
    255084522
  ],
  "tags": {
    "highway": "secondary",
    "lanes": "2",
    "lit": "yes",
    "maxspeed": "20 mph",
    "name": "Wellsway",
    "ref": "B3116",
    "source": "bing",
    "source:name": "OS OpenData Locator",
    "source:ref": "OS OpenData Locator"
  }
},
{
  "type": "way",
  "id": 173153303,
  "nodes": [
    278695369,
    1839804240
  ],
  "tags": {
    "highway": "residential",
    "maxspeed": "20 mph",
    "name": "Martock Road",
    "source:name": "OS_OpenData_Locator"
  }
},
{
  "type": "way",
  "id": 173158022,
  "nodes": [
    1839845632,
    1839845596
  ],
  "tags": {
    "highway": "residential",
    "maxspeed": "20 mph",
    "name": "Medway Close",
    "source:name": "OS_OpenData_Locator"
  }
},
{
  "type": "way",
  "id": 173158023,
  "nodes": [
    1839845616,
    1839845618,
    1839845648
  ],
  "tags": {
    "highway": "service",
    "maxspeed": "20 mph",
    "service": "driveway"
  }
},
{
  "type": "way",
  "id": 173158024,
  "nodes": [
    1839845608,
    1839845599
  ],
  "tags": {
    "highway": "residential",
    "maxspeed": "20 mph",
    "name": "Sunnymead",
    "source:name": "OS_OpenData_Locator"
  }
},
{
  "type": "way",
  "id": 175154033,
  "nodes": [
    1720327145,
    1720327106
  ],
  "tags": {
    "highway": "residential",
    "maxspeed": "20 mph",
    "oneway": "yes"
  }
},
{
  "type": "way",
  "id": 175154036,
  "nodes": [
    1857930019,
    8870366208,
    8870396926,
    253515785,
    8870366210,
    8870366209,
    8870396921,
    8870396922,
    8870366207,
    8870396924,
    8870396919,
    8870366211,
    253515789,
    3969276821,
    253515790,
    1857930018,
    253515791,
    1857929975,
    253515792,
    1720327057,
    255084526
  ],
  "tags": {
    "highway": "unclassified",
    "maxweight": "7.5",
    "name": "Chewton Road"
  }
},
{
  "type": "way",
  "id": 200507396,
  "nodes": [
    2104835800,
    2104835799
  ],
  "tags": {
    "highway": "service",
    "maxspeed": "20 mph",
    "service": "parking_aisle"
  }
},
{
  "type": "way",
  "id": 200507399,
  "nodes": [
    2104835782,
    2104835788
  ],
  "tags": {
    "highway": "residential",
    "maxspeed": "20 mph",
    "name": "Witham Road",
    "source:name": "OS_OpenData_Locator",
    "source:track": "Bing"
  }
},
{
  "type": "way",
  "id": 200507401,
  "nodes": [
    2104835781,
    2104835779,
    2104835780,
    2104835777,
    2104835783,
    2104835773,
    2104835784
  ],
  "tags": {
    "highway": "service",
    "maxspeed": "20 mph",
    "service": "parking_aisle"
  }
},
{
  "type": "way",
  "id": 200507404,
  "nodes": [
    2104835796,
    2104835785,
    2104835787,
    2104835774
  ],
  "tags": {
    "highway": "track"
  }
},
{
  "type": "way",
  "id": 200507405,
  "nodes": [
    2104835778,
    2104835799,
    2104835803
  ],
  "tags": {
    "highway": "service",
    "maxspeed": "20 mph",
    "service": "parking_aisle"
  }
},
{
  "type": "way",
  "id": 200507554,
  "nodes": [
    2104836668,
    2104836670
  ],
  "tags": {
    "highway": "service",
    "maxspeed": "20 mph",
    "service": "parking_aisle"
  }
},
{
  "type": "way",
  "id": 200507555,
  "nodes": [
    2104836669,
    2104835809,
    2104836670,
    2104836672,
    2104866715,
    2104866716
  ],
  "tags": {
    "highway": "service",
    "maxspeed": "20 mph",
    "service": "parking_aisle"
  }
},
{
  "type": "way",
  "id": 200510597,
  "nodes": [
    2104866709,
    2104866712,
    2104866713,
    2104866699
  ],
  "tags": {
    "highway": "service",
    "maxspeed": "20 mph",
    "service": "parking_aisle"
  }
},
{
  "type": "way",
  "id": 200510599,
  "nodes": [
    2104866699,
    259182527,
    2104866706
  ],
  "tags": {
    "highway": "residential",
    "maxspeed": "20 mph",
    "name": "Torridge Road"
  }
},
{
  "type": "way",
  "id": 200510601,
  "nodes": [
    2104866715,
    2104866696
  ],
  "tags": {
    "highway": "service",
    "maxspeed": "20 mph",
    "service": "parking_aisle"
  }
},
{
  "type": "way",
  "id": 200510602,
  "nodes": [
    2104866722,
    2104866708,
    2104866724
  ],
  "tags": {
    "highway": "service",
    "maxspeed": "20 mph",
    "service": "parking_aisle"
  }
},
{
  "type": "way",
  "id": 200512201,
  "nodes": [
    2104881044,
    1234890327,
    2104881004
  ],
  "tags": {
    "highway": "service",
    "maxspeed": "20 mph",
    "service": "parking_aisle"
  }
},
{
  "type": "way",
  "id": 200516625,
  "nodes": [
    1413096171,
    2104919950,
    2104919944
  ],
  "tags": {
    "highway": "service",
    "maxspeed": "20 mph",
    "service": "parking_aisle"
  }
},
{
  "type": "way",
  "id": 200516627,
  "nodes": [
    2104897232,
    2104919906,
    2104919910,
    2104919908,
    2104919904,
    2104919929,
    2104919913,
    2104919921
  ],
  "tags": {
    "highway": "service",
    "maxspeed": "20 mph",
    "service": "driveway"
  }
},
{
  "type": "way",
  "id": 202403795,
  "nodes": [
    2123741874,
    2195650482,
    259181669
  ],
  "tags": {
    "highway": "residential",
    "maxspeed": "20 mph",
    "name": "Clyde Avenue"
  }
},
{
  "type": "way",
  "id": 209342685,
  "nodes": [
    2195650032,
    2195650056,
    2195650051,
    2195650029,
    2195650053,
    2195650049,
    2195650030
  ],
  "tags": {
    "highway": "residential",
    "maxspeed": "20 mph"
  }
},
{
  "type": "way",
  "id": 209342686,
  "nodes": [
    2195650037,
    259182767,
    10928264849,
    10928265065,
    259182768
  ],
  "tags": {
    "highway": "residential",
    "maxspeed": "20 mph"
  }
},
{
  "type": "way",
  "id": 307559713,
  "nodes": [
    3127520496,
    3127520508,
    1857930044,
    1857930053,
    1857930055
  ],
  "tags": {
    "highway": "residential",
    "maxspeed": "20 mph",
    "name": "Medway Drive",
    "oneway": "yes",
    "source": "Bing;survey"
  }
},
{
  "type": "way",
  "id": 553538087,
  "nodes": [
    5342987064,
    1720327089,
    255084526,
    1720327055,
    1720327053,
    1720327048
  ],
  "tags": {
    "highway": "secondary",
    "lanes": "2",
    "lit": "yes",
    "maxspeed": "20 mph",
    "name": "Wellsway",
    "ref": "B3116",
    "source:name": "OS OpenData Locator",
    "source:ref": "OS OpenData Locator"
  }
},
{
  "type": "way",
  "id": 553538089,
  "nodes": [
    1720327048,
    1720327046,
    8127926519,
    1720327037,
    255084531
  ],
  "tags": {
    "highway": "secondary",
    "lanes": "2",
    "lit": "yes",
    "maxspeed": "30 mph",
    "name": "Wellsway",
    "ref": "B3116",
    "source:name": "OS OpenData Locator",
    "source:ref": "OS OpenData Locator"
  }
},
{
  "type": "way",
  "id": 553538094,
  "nodes": [
    259183175,
    1839857436,
    663484523,
    1839798715,
    1857908991,
    663484524,
    663484525,
    1839857442,
    1839798736,
    259183295,
    259183296,
    1842667288,
    1842667320,
    1842667319,
    259183297,
    1842667322,
    1842667317,
    1842667303,
    259183298,
    1842667324,
    259183299,
    663725612,
    259183300,
    663692745,
    1842667283,
    259183301,
    663692746,
    259183303,
    1842667338,
    1857908990,
    663692747,
    259183304,
    259183305,
    663692748,
    8067059299,
    8067059303,
    8067059307,
    259183307,
    1842667326,
    663641186,
    259183308,
    1857908965,
    663641187,
    259183309,
    663641188,
    663641189,
    8233239848,
    8233239859,
    11765998609,
    663641190,
    1857908958,
    259183310,
    259183311,
    663643952,
    259183312
  ],
  "tags": {
    "highway": "residential",
    "maxspeed": "20 mph",
    "name": "Manor Road"
  }
},
{
  "type": "way",
  "id": 675388431,
  "nodes": [
    259183166,
    6325046712,
    6325046713,
    6325046714,
    6325046715,
    6325046716,
    6325046717,
    6325046718
  ],
  "tags": {
    "highway": "service",
    "service": "alley",
    "surface": "asphalt"
  }
},
{
  "type": "way",
  "id": 683691782,
  "nodes": [
    6404061930,
    6404061929,
    6404061933
  ],
  "tags": {
    "highway": "service"
  }
},
{
  "type": "way",
  "id": 683692432,
  "nodes": [
    2104897195,
    2104897171
  ],
  "tags": {
    "highway": "service",
    "maxspeed": "20 mph",
    "service": "parking_aisle"
  }
},
{
  "type": "way",
  "id": 683692433,
  "nodes": [
    259182680,
    2104897232,
    259182681,
    259182682,
    259182577
  ],
  "tags": {
    "highway": "residential",
    "maxspeed": "20 mph",
    "name": "Cherwell Road",
    "surface": "asphalt"
  }
},
{
  "type": "way",
  "id": 747517802,
  "nodes": [
    259182624,
    6994577002,
    6994577003
  ],
  "tags": {
    "highway": "service"
  }
},
{
  "type": "way",
  "id": 815872124,
  "nodes": [
    1720327145,
    1720327141,
    259183163,
    5342987064
  ],
  "tags": {
    "highway": "secondary",
    "lanes": "2",
    "lit": "yes",
    "maxspeed": "20 mph",
    "name": "Wellsway",
    "ref": "B3116",
    "source": "bing",
    "source:name": "OS OpenData Locator",
    "source:ref": "OS OpenData Locator"
  }
},
{
  "type": "way",
  "id": 815872125,
  "nodes": [
    255084522,
    1720327145
  ],
  "tags": {
    "highway": "secondary",
    "lanes": "2",
    "lit": "yes",
    "maxspeed": "20 mph",
    "name": "Wellsway",
    "ref": "B3116",
    "source": "bing",
    "source:name": "OS OpenData Locator",
    "source:ref": "OS OpenData Locator"
  }
},
{
  "type": "way",
  "id": 868059671,
  "nodes": [
    8091290554,
    8091290555,
    8091290556,
    8091290557,
    8091290558
  ],
  "tags": {
    "highway": "service"
  }
},
{
  "type": "way",
  "id": 872836193,
  "nodes": [
    8127926519,
    8127926520,
    8132644483,
    8127926521,
    8132644482
  ],
  "tags": {
    "access": "private",
    "highway": "service",
    "service": "driveway"
  }
},
{
  "type": "way",
  "id": 873293301,
  "nodes": [
    8132644483,
    8132644481
  ],
  "tags": {
    "access": "private",
    "highway": "service",
    "service": "driveway"
  }
},
{
  "type": "way",
  "id": 1073199183,
  "nodes": [
    9845302432,
    9845302435,
    9845302429,
    9845302418,
    9845302425
  ],
  "tags": {
    "highway": "residential",
    "name": "Oboe Avenue"
  }
},
{
  "type": "way",
  "id": 1073199184,
  "nodes": [
    9845162104,
    9845302432
  ],
  "tags": {
    "highway": "service",
    "name": "Oboe Avenue",
    "service": "driveway"
  }
},
{
  "type": "way",
  "id": 1164414184,
  "nodes": [
    2104881022,
    10942086958,
    10942086959,
    10829525056,
    10829525057,
    10829525058
  ],
  "tags": {
    "highway": "service",
    "service": "parking_aisle"
  }
},
{
  "type": "way",
  "id": 1168204679,
  "nodes": [
    10864293676,
    10864293677
  ],
  "tags": {
    "highway": "service",
    "service": "driveway",
    "surface": "asphalt"
  }
},
{
  "type": "way",
  "id": 1168204688,
  "nodes": [
    10864306778,
    10864306779
  ],
  "tags": {
    "highway": "service"
  }
},
{
  "type": "way",
  "id": 1175296518,
  "nodes": [
    10921434601,
    10921434602,
    10921434603,
    10921434604,
    10921434605,
    10921434606,
    10921434607,
    10921434608
  ],
  "tags": {
    "highway": "service"
  }
},
{
  "type": "way",
  "id": 1176169575,
  "nodes": [
    10928264849,
    10928264850,
    10928264851
  ],
  "tags": {
    "highway": "service",
    "surface": "asphalt"
  }
},
{
  "type": "way",
  "id": 1176169609,
  "nodes": [
    2195650035,
    10928265064,
    2195650041,
    2195650040,
    2195650037
  ],
  "tags": {
    "highway": "residential",
    "maxspeed": "20 mph"
  }
},
{
  "type": "way",
  "id": 1176169611,
  "nodes": [
    2195650037,
    2195650057,
    10928265063,
    10928265056
  ],
  "tags": {
    "highway": "service",
    "maxspeed": "20 mph",
    "service": "parking_aisle"
  }
},
{
  "type": "way",
  "id": 1176169612,
  "nodes": [
    10928265063,
    10928265064
  ],
  "tags": {
    "highway": "service",
    "service": "parking_aisle"
  }
},
{
  "type": "way",
  "id": 1176169613,
  "nodes": [
    10928265065,
    10928265066,
    10928265067
  ],
  "tags": {
    "highway": "service"
  }
},
{
  "type": "way",
  "id": 1211588630,
  "nodes": [
    1234890423,
    11224950062,
    11224950063,
    11224950064
  ],
  "tags": {
    "highway": "service"
  }
},
{
  "type": "way",
  "id": 1227602630,
  "nodes": [
    11383876639,
    11383876640,
    11383876641,
    11383876642,
    11383876643
  ],
  "tags": {
    "highway": "service"
  }
},
{
  "type": "way",
  "id": 1228036717,
  "nodes": [
    11387868155,
    11387868156
  ],
  "tags": {
    "highway": "service",
    "service": "driveway"
  }
},
{
  "type": "node",
  "id": 253515785,
  "lat": 51.4009487,
  "lon": -2.4951585
},
{
  "type": "node",
  "id": 253515789,
  "lat": 51.4026665,
  "lon": -2.4948667
},
{
  "type": "node",
  "id": 253515790,
  "lat": 51.4030589,
  "lon": -2.4947859
},
{
  "type": "node",
  "id": 255084531,
  "lat": 51.4023888,
  "lon": -2.4925324
},
{
  "type": "node",
  "id": 278695348,
  "lat": 51.4024844,
  "lon": -2.4920831
},
{
  "type": "node",
  "id": 278695349,
  "lat": 51.4026930,
  "lon": -2.4915570
},
{
  "type": "node",
  "id": 278695350,
  "lat": 51.4028513,
  "lon": -2.4913116
},
{
  "type": "node",
  "id": 278695352,
  "lat": 51.4030782,
  "lon": -2.4907137
},
{
  "type": "node",
  "id": 278695354,
  "lat": 51.4030014,
  "lon": -2.4907228
},
{
  "type": "node",
  "id": 278695355,
  "lat": 51.4027608,
  "lon": -2.4907214
},
{
  "type": "node",
  "id": 278695356,
  "lat": 51.4023557,
  "lon": -2.4907405
},
{
  "type": "node",
  "id": 1720327026,
  "lat": 51.4025435,
  "lon": -2.4918419
},
{
  "type": "node",
  "id": 1720327032,
  "lat": 51.4026002,
  "lon": -2.4917033
},
{
  "type": "node",
  "id": 1720327037,
  "lat": 51.4027096,
  "lon": -2.4926474
},
{
  "type": "node",
  "id": 1720327041,
  "lat": 51.4029325,
  "lon": -2.4911446
},
{
  "type": "node",
  "id": 1720327044,
  "lat": 51.4029663,
  "lon": -2.4910082
},
{
  "type": "node",
  "id": 1720327046,
  "lat": 51.4031365,
  "lon": -2.4928098
},
{
  "type": "node",
  "id": 1839845599,
  "lat": 51.4023990,
  "lon": -2.4908656
},
{
  "type": "node",
  "id": 1839845608,
  "lat": 51.4023964,
  "lon": -2.4907386
},
{
  "type": "node",
  "id": 1857930019,
  "lat": 51.4008790,
  "lon": -2.4952509
},
{
  "type": "node",
  "id": 3969276821,
  "lat": 51.4029313,
  "lon": -2.4948122
},
{
  "type": "node",
  "id": 8127926519,
  "lat": 51.4031080,
  "lon": -2.4927990
},
{
  "type": "node",
  "id": 8127926520,
  "lat": 51.4031239,
  "lon": -2.4927092
},
{
  "type": "node",
  "id": 8132644481,
  "lat": 51.4030422,
  "lon": -2.4922261
},
{
  "type": "node",
  "id": 8870366207,
  "lat": 51.4012031,
  "lon": -2.4952361
},
{
  "type": "node",
  "id": 8870366208,
  "lat": 51.4008956,
  "lon": -2.4952109
},
{
  "type": "node",
  "id": 8870366209,
  "lat": 51.4010361,
  "lon": -2.4951543
},
{
  "type": "node",
  "id": 8870366210,
  "lat": 51.4009818,
  "lon": -2.4951469
},
{
  "type": "node",
  "id": 8870366211,
  "lat": 51.4015687,
  "lon": -2.4951469
},
{
  "type": "node",
  "id": 8870396919,
  "lat": 51.4013161,
  "lon": -2.4952221
},
{
  "type": "node",
  "id": 8870396921,
  "lat": 51.4010828,
  "lon": -2.4951762
},
{
  "type": "node",
  "id": 8870396922,
  "lat": 51.4011625,
  "lon": -2.4952294
},
{
  "type": "node",
  "id": 8870396924,
  "lat": 51.4012501,
  "lon": -2.4952362
},
{
  "type": "node",
  "id": 8870396926,
  "lat": 51.4009142,
  "lon": -2.4951826
},
{
  "type": "node",
  "id": 253515791,
  "lat": 51.4033290,
  "lon": -2.4946524
},
{
  "type": "node",
  "id": 253515792,
  "lat": 51.4035270,
  "lon": -2.4944685
},
{
  "type": "node",
  "id": 255084516,
  "lat": 51.4092702,
  "lon": -2.4932656
},
{
  "type": "node",
  "id": 255084522,
  "lat": 51.4060377,
  "lon": -2.4926386
},
{
  "type": "node",
  "id": 255084526,
  "lat": 51.4043277,
  "lon": -2.4931077
},
{
  "type": "node",
  "id": 259181435,
  "lat": 51.4061122,
  "lon": -2.4906292
},
{
  "type": "node",
  "id": 259181436,
  "lat": 51.4060153,
  "lon": -2.4908900
},
{
  "type": "node",
  "id": 259181669,
  "lat": 51.4073279,
  "lon": -2.4915880
},
{
  "type": "node",
  "id": 259181670,
  "lat": 51.4068358,
  "lon": -2.4914728
},
{
  "type": "node",
  "id": 259181681,
  "lat": 51.4066776,
  "lon": -2.4913692
},
{
  "type": "node",
  "id": 259182431,
  "lat": 51.4060358,
  "lon": -2.4923267
},
{
  "type": "node",
  "id": 259182432,
  "lat": 51.4057001,
  "lon": -2.4911116
},
{
  "type": "node",
  "id": 259182433,
  "lat": 51.4055713,
  "lon": -2.4904244
},
{
  "type": "node",
  "id": 259182767,
  "lat": 51.4080161,
  "lon": -2.4925241
},
{
  "type": "node",
  "id": 259182768,
  "lat": 51.4079888,
  "lon": -2.4931244
},
{
  "type": "node",
  "id": 259182844,
  "lat": 51.4050024,
  "lon": -2.4904104
},
{
  "type": "node",
  "id": 259182845,
  "lat": 51.4051508,
  "lon": -2.4905336
},
{
  "type": "node",
  "id": 259182846,
  "lat": 51.4052620,
  "lon": -2.4905692
},
{
  "type": "node",
  "id": 259183163,
  "lat": 51.4054689,
  "lon": -2.4927330
},
{
  "type": "node",
  "id": 259183164,
  "lat": 51.4052843,
  "lon": -2.4924144
},
{
  "type": "node",
  "id": 259183165,
  "lat": 51.4050791,
  "lon": -2.4922571
},
{
  "type": "node",
  "id": 259183166,
  "lat": 51.4048217,
  "lon": -2.4917343
},
{
  "type": "node",
  "id": 259183167,
  "lat": 51.4045349,
  "lon": -2.4911219
},
{
  "type": "node",
  "id": 259183186,
  "lat": 51.4037085,
  "lon": -2.4915551
},
{
  "type": "node",
  "id": 259183187,
  "lat": 51.4041380,
  "lon": -2.4918864
},
{
  "type": "node",
  "id": 259183188,
  "lat": 51.4042923,
  "lon": -2.4914411
},
{
  "type": "node",
  "id": 1720327048,
  "lat": 51.4034750,
  "lon": -2.4929324
},
{
  "type": "node",
  "id": 1720327053,
  "lat": 51.4041019,
  "lon": -2.4931138
},
{
  "type": "node",
  "id": 1720327055,
  "lat": 51.4042330,
  "lon": -2.4931203
},
{
  "type": "node",
  "id": 1720327057,
  "lat": 51.4043055,
  "lon": -2.4932296
},
{
  "type": "node",
  "id": 1720327084,
  "lat": 51.4042572,
  "lon": -2.4914991
},
{
  "type": "node",
  "id": 1720327089,
  "lat": 51.4044470,
  "lon": -2.4930902
},
{
  "type": "node",
  "id": 1720327094,
  "lat": 51.4046564,
  "lon": -2.4913857
},
{
  "type": "node",
  "id": 1720327098,
  "lat": 51.4051302,
  "lon": -2.4923228
},
{
  "type": "node",
  "id": 1720327104,
  "lat": 51.4051961,
  "lon": -2.4923642
},
{
  "type": "node",
  "id": 1720327106,
  "lat": 51.4053633,
  "lon": -2.4924560
},
{
  "type": "node",
  "id": 1720327110,
  "lat": 51.4054015,
  "lon": -2.4925035
},
{
  "type": "node",
  "id": 1720327113,
  "lat": 51.4054491,
  "lon": -2.4925970
},
{
  "type": "node",
  "id": 1720327141,
  "lat": 51.4057880,
  "lon": -2.4926488
},
{
  "type": "node",
  "id": 1720327145,
  "lat": 51.4059934,
  "lon": -2.4926347
},
{
  "type": "node",
  "id": 1720327149,
  "lat": 51.4060428,
  "lon": -2.4923856
},
{
  "type": "node",
  "id": 1720327154,
  "lat": 51.4068458,
  "lon": -2.4927990
},
{
  "type": "node",
  "id": 1720327163,
  "lat": 51.4071099,
  "lon": -2.4928764
},
{
  "type": "node",
  "id": 1720327198,
  "lat": 51.4075928,
  "lon": -2.4930155
},
{
  "type": "node",
  "id": 1720327246,
  "lat": 51.4083235,
  "lon": -2.4932104
},
{
  "type": "node",
  "id": 1720327248,
  "lat": 51.4085248,
  "lon": -2.4932645
},
{
  "type": "node",
  "id": 1720327253,
  "lat": 51.4087395,
  "lon": -2.4932797
},
{
  "type": "node",
  "id": 1720327259,
  "lat": 51.4088624,
  "lon": -2.4932797
},
{
  "type": "node",
  "id": 1720327287,
  "lat": 51.4094446,
  "lon": -2.4932559
},
{
  "type": "node",
  "id": 1720327289,
  "lat": 51.4096026,
  "lon": -2.4932212
},
{
  "type": "node",
  "id": 1857929975,
  "lat": 51.4034256,
  "lon": -2.4945812
},
{
  "type": "node",
  "id": 1857930003,
  "lat": 51.4059318,
  "lon": -2.4909900
},
{
  "type": "node",
  "id": 1857930018,
  "lat": 51.4031916,
  "lon": -2.4947435
},
{
  "type": "node",
  "id": 1857930020,
  "lat": 51.4053409,
  "lon": -2.4905482
},
{
  "type": "node",
  "id": 2104919899,
  "lat": 51.4059772,
  "lon": -2.4909554
},
{
  "type": "node",
  "id": 2123741867,
  "lat": 51.4073727,
  "lon": -2.4914683
},
{
  "type": "node",
  "id": 2123741870,
  "lat": 51.4073584,
  "lon": -2.4915345
},
{
  "type": "node",
  "id": 2123741873,
  "lat": 51.4067352,
  "lon": -2.4914256
},
{
  "type": "node",
  "id": 2123741874,
  "lat": 51.4074355,
  "lon": -2.4916354
},
{
  "type": "node",
  "id": 2123741875,
  "lat": 51.4072618,
  "lon": -2.4916004
},
{
  "type": "node",
  "id": 2123741883,
  "lat": 51.4072888,
  "lon": -2.4916028
},
{
  "type": "node",
  "id": 2195644900,
  "lat": 51.4077783,
  "lon": -2.4930746
},
{
  "type": "node",
  "id": 2195650029,
  "lat": 51.4078891,
  "lon": -2.4914065
},
{
  "type": "node",
  "id": 2195650030,
  "lat": 51.4077870,
  "lon": -2.4920087
},
{
  "type": "node",
  "id": 2195650031,
  "lat": 51.4078958,
  "lon": -2.4908499
},
{
  "type": "node",
  "id": 2195650032,
  "lat": 51.4081456,
  "lon": -2.4913751
},
{
  "type": "node",
  "id": 2195650033,
  "lat": 51.4079075,
  "lon": -2.4906971
},
{
  "type": "node",
  "id": 2195650034,
  "lat": 51.4081664,
  "lon": -2.4912292
},
{
  "type": "node",
  "id": 2195650035,
  "lat": 51.4083723,
  "lon": -2.4918038
},
{
  "type": "node",
  "id": 2195650036,
  "lat": 51.4084363,
  "lon": -2.4916158
},
{
  "type": "node",
  "id": 2195650037,
  "lat": 51.4080447,
  "lon": -2.4924459
},
{
  "type": "node",
  "id": 2195650038,
  "lat": 51.4086487,
  "lon": -2.4907990
},
{
  "type": "node",
  "id": 2195650039,
  "lat": 51.4085767,
  "lon": -2.4911316
},
{
  "type": "node",
  "id": 2195650040,
  "lat": 51.4081300,
  "lon": -2.4924217
},
{
  "type": "node",
  "id": 2195650041,
  "lat": 51.4081785,
  "lon": -2.4923734
},
{
  "type": "node",
  "id": 2195650042,
  "lat": 51.4086202,
  "lon": -2.4906461
},
{
  "type": "node",
  "id": 2195650043,
  "lat": 51.4082990,
  "lon": -2.4905656
},
{
  "type": "node",
  "id": 2195650044,
  "lat": 51.4085751,
  "lon": -2.4906059
},
{
  "type": "node",
  "id": 2195650045,
  "lat": 51.4086453,
  "lon": -2.4906944
},
{
  "type": "node",
  "id": 2195650046,
  "lat": 51.4083693,
  "lon": -2.4905227
},
{
  "type": "node",
  "id": 2195650047,
  "lat": 51.4082608,
  "lon": -2.4906255
},
{
  "type": "node",
  "id": 2195650048,
  "lat": 51.4079493,
  "lon": -2.4906381
},
{
  "type": "node",
  "id": 2195650049,
  "lat": 51.4078314,
  "lon": -2.4917418
},
{
  "type": "node",
  "id": 2195650050,
  "lat": 51.4079292,
  "lon": -2.4909358
},
{
  "type": "node",
  "id": 2195650051,
  "lat": 51.4079100,
  "lon": -2.4913622
},
{
  "type": "node",
  "id": 2195650052,
  "lat": 51.4081283,
  "lon": -2.4905817
},
{
  "type": "node",
  "id": 2195650053,
  "lat": 51.4078682,
  "lon": -2.4916197
},
{
  "type": "node",
  "id": 2195650055,
  "lat": 51.4080196,
  "lon": -2.4905898
},
{
  "type": "node",
  "id": 2195650056,
  "lat": 51.4079468,
  "lon": -2.4913475
},
{
  "type": "node",
  "id": 2195650057,
  "lat": 51.4080096,
  "lon": -2.4923308
},
{
  "type": "node",
  "id": 2195650482,
  "lat": 51.4073983,
  "lon": -2.4916230
},
{
  "type": "node",
  "id": 5342987064,
  "lat": 51.4053706,
  "lon": -2.4927674
},
{
  "type": "node",
  "id": 6325046712,
  "lat": 51.4048548,
  "lon": -2.4916404
},
{
  "type": "node",
  "id": 6325046713,
  "lat": 51.4049380,
  "lon": -2.4910176
},
{
  "type": "node",
  "id": 6325046714,
  "lat": 51.4049572,
  "lon": -2.4909777
},
{
  "type": "node",
  "id": 6325046715,
  "lat": 51.4049882,
  "lon": -2.4909660
},
{
  "type": "node",
  "id": 6325046716,
  "lat": 51.4050621,
  "lon": -2.4909916
},
{
  "type": "node",
  "id": 6325046717,
  "lat": 51.4051032,
  "lon": -2.4910442
},
{
  "type": "node",
  "id": 6325046718,
  "lat": 51.4052375,
  "lon": -2.4912385
},
{
  "type": "node",
  "id": 8127926521,
  "lat": 51.4032594,
  "lon": -2.4919937
},
{
  "type": "node",
  "id": 8132644482,
  "lat": 51.4032091,
  "lon": -2.4919646
},
{
  "type": "node",
  "id": 8132644483,
  "lat": 51.4031873,
  "lon": -2.4923153
},
{
  "type": "node",
  "id": 10539960222,
  "lat": 51.4073141,
  "lon": -2.4929343
},
{
  "type": "node",
  "id": 10852911564,
  "lat": 51.4075136,
  "lon": -2.4905052
},
{
  "type": "node",
  "id": 10861980691,
  "lat": 51.4059982,
  "lon": -2.4909289
},
{
  "type": "node",
  "id": 10861980712,
  "lat": 51.4057952,
  "lon": -2.4914996
},
{
  "type": "node",
  "id": 10861980768,
  "lat": 51.4053019,
  "lon": -2.4905641
},
{
  "type": "node",
  "id": 10864293676,
  "lat": 51.4051645,
  "lon": -2.4905380
},
{
  "type": "node",
  "id": 10864293677,
  "lat": 51.4051282,
  "lon": -2.4908421
},
{
  "type": "node",
  "id": 10928264849,
  "lat": 51.4079979,
  "lon": -2.4929249
},
{
  "type": "node",
  "id": 10928264850,
  "lat": 51.4082446,
  "lon": -2.4929936
},
{
  "type": "node",
  "id": 10928264851,
  "lat": 51.4083022,
  "lon": -2.4926016
},
{
  "type": "node",
  "id": 10928265055,
  "lat": 51.4080716,
  "lon": -2.4918632
},
{
  "type": "node",
  "id": 10928265056,
  "lat": 51.4080668,
  "lon": -2.4919333
},
{
  "type": "node",
  "id": 10928265063,
  "lat": 51.4080291,
  "lon": -2.4921949
},
{
  "type": "node",
  "id": 10928265064,
  "lat": 51.4082136,
  "lon": -2.4922701
},
{
  "type": "node",
  "id": 10928265065,
  "lat": 51.4079965,
  "lon": -2.4929561
},
{
  "type": "node",
  "id": 10928265066,
  "lat": 51.4076782,
  "lon": -2.4928547
},
{
  "type": "node",
  "id": 10928265067,
  "lat": 51.4076959,
  "lon": -2.4926982
},
{
  "type": "node",
  "id": 11387868155,
  "lat": 51.4040300,
  "lon": -2.4918031
},
{
  "type": "node",
  "id": 11387868156,
  "lat": 51.4039067,
  "lon": -2.4922232
},
{
  "type": "node",
  "id": 26152720,
  "lat": 51.4122435,
  "lon": -2.4934516
},
{
  "type": "node",
  "id": 366218554,
  "lat": 51.4122747,
  "lon": -2.4908544
},
{
  "type": "node",
  "id": 1234890377,
  "lat": 51.4121313,
  "lon": -2.4908136
},
{
  "type": "node",
  "id": 1720327297,
  "lat": 51.4097323,
  "lon": -2.4931693
},
{
  "type": "node",
  "id": 1720327304,
  "lat": 51.4098883,
  "lon": -2.4930930
},
{
  "type": "node",
  "id": 1720327313,
  "lat": 51.4099968,
  "lon": -2.4930464
},
{
  "type": "node",
  "id": 1720327329,
  "lat": 51.4100274,
  "lon": -2.4930373
},
{
  "type": "node",
  "id": 1720327333,
  "lat": 51.4100643,
  "lon": -2.4930387
},
{
  "type": "node",
  "id": 1720327339,
  "lat": 51.4102011,
  "lon": -2.4930669
},
{
  "type": "node",
  "id": 1720327343,
  "lat": 51.4105775,
  "lon": -2.4931741
},
{
  "type": "node",
  "id": 1720327356,
  "lat": 51.4109996,
  "lon": -2.4933027
},
{
  "type": "node",
  "id": 1720327398,
  "lat": 51.4113434,
  "lon": -2.4934068
},
{
  "type": "node",
  "id": 1720327410,
  "lat": 51.4118891,
  "lon": -2.4936020
},
{
  "type": "node",
  "id": 1720327426,
  "lat": 51.4120723,
  "lon": -2.4935710
},
{
  "type": "node",
  "id": 1720327435,
  "lat": 51.4121291,
  "lon": -2.4935334
},
{
  "type": "node",
  "id": 1858619083,
  "lat": 51.4101079,
  "lon": -2.4930426
},
{
  "type": "node",
  "id": 2123700700,
  "lat": 51.4120946,
  "lon": -2.4935573
},
{
  "type": "node",
  "id": 7769120735,
  "lat": 51.4113887,
  "lon": -2.4934204
},
{
  "type": "node",
  "id": 10929228243,
  "lat": 51.4114736,
  "lon": -2.4934528
},
{
  "type": "node",
  "id": 10929228318,
  "lat": 51.4117951,
  "lon": -2.4935755
},
{
  "type": "node",
  "id": 10957449840,
  "lat": 51.4119874,
  "lon": -2.4936004
},
{
  "type": "node",
  "id": 11217988588,
  "lat": 51.4121222,
  "lon": -2.4908081
},
{
  "type": "node",
  "id": 259183173,
  "lat": 51.4030878,
  "lon": -2.4863305
},
{
  "type": "node",
  "id": 259183174,
  "lat": 51.4029624,
  "lon": -2.4855447
},
{
  "type": "node",
  "id": 259183175,
  "lat": 51.4025476,
  "lon": -2.4842261
},
{
  "type": "node",
  "id": 259183453,
  "lat": 51.3995925,
  "lon": -2.4879161
},
{
  "type": "node",
  "id": 264495682,
  "lat": 51.3997639,
  "lon": -2.4879179
},
{
  "type": "node",
  "id": 264495683,
  "lat": 51.4000518,
  "lon": -2.4878201
},
{
  "type": "node",
  "id": 264495684,
  "lat": 51.4003465,
  "lon": -2.4875801
},
{
  "type": "node",
  "id": 264495685,
  "lat": 51.4007174,
  "lon": -2.4871125
},
{
  "type": "node",
  "id": 264495686,
  "lat": 51.4008690,
  "lon": -2.4869813
},
{
  "type": "node",
  "id": 264495687,
  "lat": 51.4016003,
  "lon": -2.4865110
},
{
  "type": "node",
  "id": 264495688,
  "lat": 51.4019504,
  "lon": -2.4863750
},
{
  "type": "node",
  "id": 264495689,
  "lat": 51.4025648,
  "lon": -2.4864212
},
{
  "type": "node",
  "id": 278695359,
  "lat": 51.4024719,
  "lon": -2.4858599
},
{
  "type": "node",
  "id": 278695369,
  "lat": 51.4024427,
  "lon": -2.4847120
},
{
  "type": "node",
  "id": 278695370,
  "lat": 51.4024325,
  "lon": -2.4846255
},
{
  "type": "node",
  "id": 278695379,
  "lat": 51.4025365,
  "lon": -2.4858562
},
{
  "type": "node",
  "id": 366218564,
  "lat": 51.4026578,
  "lon": -2.4845675
},
{
  "type": "node",
  "id": 663484523,
  "lat": 51.4023577,
  "lon": -2.4838697
},
{
  "type": "node",
  "id": 1839798699,
  "lat": 51.4014691,
  "lon": -2.4851076
},
{
  "type": "node",
  "id": 1839798703,
  "lat": 51.4014038,
  "lon": -2.4850889
},
{
  "type": "node",
  "id": 1839798707,
  "lat": 51.4012527,
  "lon": -2.4848990
},
{
  "type": "node",
  "id": 1839798711,
  "lat": 51.4013066,
  "lon": -2.4849986
},
{
  "type": "node",
  "id": 1839798714,
  "lat": 51.4022550,
  "lon": -2.4858834
},
{
  "type": "node",
  "id": 1839798716,
  "lat": 51.4021396,
  "lon": -2.4858593
},
{
  "type": "node",
  "id": 1839798718,
  "lat": 51.4020492,
  "lon": -2.4858754
},
{
  "type": "node",
  "id": 1839798721,
  "lat": 51.4025323,
  "lon": -2.4856494
},
{
  "type": "node",
  "id": 1839798725,
  "lat": 51.4024497,
  "lon": -2.4851522
},
{
  "type": "node",
  "id": 1839798728,
  "lat": 51.4023970,
  "lon": -2.4850340
},
{
  "type": "node",
  "id": 1839798729,
  "lat": 51.4018865,
  "lon": -2.4850374
},
{
  "type": "node",
  "id": 1839798731,
  "lat": 51.4023260,
  "lon": -2.4849788
},
{
  "type": "node",
  "id": 1839798734,
  "lat": 51.4021716,
  "lon": -2.4849294
},
{
  "type": "node",
  "id": 1839798737,
  "lat": 51.4021045,
  "lon": -2.4849366
},
{
  "type": "node",
  "id": 1839798739,
  "lat": 51.4018183,
  "lon": -2.4850546
},
{
  "type": "node",
  "id": 1839798742,
  "lat": 51.4016429,
  "lon": -2.4850787
},
{
  "type": "node",
  "id": 1839804213,
  "lat": 51.4031611,
  "lon": -2.4842446
},
{
  "type": "node",
  "id": 1839804218,
  "lat": 51.4030252,
  "lon": -2.4857903
},
{
  "type": "node",
  "id": 1839804240,
  "lat": 51.4025089,
  "lon": -2.4846922
},
{
  "type": "node",
  "id": 1839804267,
  "lat": 51.4024480,
  "lon": -2.4848861
},
{
  "type": "node",
  "id": 1839821852,
  "lat": 51.4002124,
  "lon": -2.4877080
},
{
  "type": "node",
  "id": 1839845552,
  "lat": 51.4010803,
  "lon": -2.4868248
},
{
  "type": "node",
  "id": 1839857436,
  "lat": 51.4024356,
  "lon": -2.4840114
},
{
  "type": "node",
  "id": 1839861434,
  "lat": 51.4015513,
  "lon": -2.4850853
},
{
  "type": "node",
  "id": 1886013137,
  "lat": 51.4017597,
  "lon": -2.4864264
},
{
  "type": "node",
  "id": 1886013150,
  "lat": 51.4023492,
  "lon": -2.4864264
},
{
  "type": "node",
  "id": 2775718143,
  "lat": 51.4030914,
  "lon": -2.4842642
},
{
  "type": "node",
  "id": 4948899037,
  "lat": 51.4029770,
  "lon": -2.4863612
},
{
  "type": "node",
  "id": 4948899038,
  "lat": 51.4031291,
  "lon": -2.4867266
},
{
  "type": "node",
  "id": 4948906654,
  "lat": 51.3999258,
  "lon": -2.4878804
},
{
  "type": "node",
  "id": 4948906656,
  "lat": 51.4006111,
  "lon": -2.4872317
},
{
  "type": "node",
  "id": 4948906657,
  "lat": 51.4020853,
  "lon": -2.4863825
},
{
  "type": "node",
  "id": 4948906658,
  "lat": 51.4030582,
  "lon": -2.4860116
},
{
  "type": "node",
  "id": 4948906661,
  "lat": 51.4018618,
  "lon": -2.4863929
},
{
  "type": "node",
  "id": 4948906662,
  "lat": 51.4024919,
  "lon": -2.4853417
},
{
  "type": "node",
  "id": 4948906663,
  "lat": 51.4015730,
  "lon": -2.4865281
},
{
  "type": "node",
  "id": 4948906664,
  "lat": 51.4022552,
  "lon": -2.4849433
},
{
  "type": "node",
  "id": 5940549236,
  "lat": 51.4030981,
  "lon": -2.4864261
},
{
  "type": "node",
  "id": 10829819969,
  "lat": 51.4017912,
  "lon": -2.4864161
},
{
  "type": "node",
  "id": 10829819971,
  "lat": 51.4018542,
  "lon": -2.4863954
},
{
  "type": "node",
  "id": 10829819974,
  "lat": 51.4018544,
  "lon": -2.4850455
},
{
  "type": "node",
  "id": 10921434608,
  "lat": 51.4028798,
  "lon": -2.4899818
},
{
  "type": "node",
  "id": 11383839091,
  "lat": 51.4025156,
  "lon": -2.4854941
},
{
  "type": "node",
  "id": 11383839092,
  "lat": 51.4024511,
  "lon": -2.4848322
},
{
  "type": "node",
  "id": 11383839152,
  "lat": 51.4027661,
  "lon": -2.4864046
},
{
  "type": "node",
  "id": 11383843110,
  "lat": 51.4017306,
  "lon": -2.4850726
},
{
  "type": "node",
  "id": 11383848908,
  "lat": 51.4014396,
  "lon": -2.4851041
},
{
  "type": "node",
  "id": 11383876639,
  "lat": 51.4023808,
  "lon": -2.4864256
},
{
  "type": "node",
  "id": 11383876640,
  "lat": 51.4024037,
  "lon": -2.4866484
},
{
  "type": "node",
  "id": 11383876641,
  "lat": 51.4023963,
  "lon": -2.4866911
},
{
  "type": "node",
  "id": 11383876642,
  "lat": 51.4023833,
  "lon": -2.4867450
},
{
  "type": "node",
  "id": 11383876643,
  "lat": 51.4023893,
  "lon": -2.4868410
},
{
  "type": "node",
  "id": 259183295,
  "lat": 51.4016425,
  "lon": -2.4801093
},
{
  "type": "node",
  "id": 259183296,
  "lat": 51.4014485,
  "lon": -2.4792047
},
{
  "type": "node",
  "id": 259183297,
  "lat": 51.4011927,
  "lon": -2.4789644
},
{
  "type": "node",
  "id": 259183298,
  "lat": 51.4009055,
  "lon": -2.4789356
},
{
  "type": "node",
  "id": 259183299,
  "lat": 51.4006398,
  "lon": -2.4777822
},
{
  "type": "node",
  "id": 259183300,
  "lat": 51.4004723,
  "lon": -2.4776741
},
{
  "type": "node",
  "id": 259183301,
  "lat": 51.4002644,
  "lon": -2.4774780
},
{
  "type": "node",
  "id": 663484524,
  "lat": 51.4021904,
  "lon": -2.4833776
},
{
  "type": "node",
  "id": 663484525,
  "lat": 51.4019949,
  "lon": -2.4823161
},
{
  "type": "node",
  "id": 663692745,
  "lat": 51.4003382,
  "lon": -2.4776186
},
{
  "type": "node",
  "id": 663692746,
  "lat": 51.4002406,
  "lon": -2.4773195
},
{
  "type": "node",
  "id": 663725612,
  "lat": 51.4005739,
  "lon": -2.4777115
},
{
  "type": "node",
  "id": 1839798715,
  "lat": 51.4022793,
  "lon": -2.4836998
},
{
  "type": "node",
  "id": 1839798736,
  "lat": 51.4019470,
  "lon": -2.4819158
},
{
  "type": "node",
  "id": 1839857442,
  "lat": 51.4019731,
  "lon": -2.4821580
},
{
  "type": "node",
  "id": 1842667283,
  "lat": 51.4002942,
  "lon": -2.4775715
},
{
  "type": "node",
  "id": 1842667288,
  "lat": 51.4013885,
  "lon": -2.4790192
},
{
  "type": "node",
  "id": 1842667303,
  "lat": 51.4009319,
  "lon": -2.4790177
},
{
  "type": "node",
  "id": 1842667317,
  "lat": 51.4009876,
  "lon": -2.4790547
},
{
  "type": "node",
  "id": 1842667319,
  "lat": 51.4012789,
  "lon": -2.4789261
},
{
  "type": "node",
  "id": 1842667320,
  "lat": 51.4013354,
  "lon": -2.4789459
},
{
  "type": "node",
  "id": 1842667322,
  "lat": 51.4010275,
  "lon": -2.4790452
},
{
  "type": "node",
  "id": 1842667324,
  "lat": 51.4006944,
  "lon": -2.4779328
},
{
  "type": "node",
  "id": 1857908991,
  "lat": 51.4022333,
  "lon": -2.4835638
},
{
  "type": "node",
  "id": 259181415,
  "lat": 51.4095515,
  "lon": -2.4885520
},
{
  "type": "node",
  "id": 259181417,
  "lat": 51.4089153,
  "lon": -2.4882125
},
{
  "type": "node",
  "id": 259181419,
  "lat": 51.4085155,
  "lon": -2.4883806
},
{
  "type": "node",
  "id": 259181421,
  "lat": 51.4084207,
  "lon": -2.4885212
},
{
  "type": "node",
  "id": 259181423,
  "lat": 51.4082785,
  "lon": -2.4886580
},
{
  "type": "node",
  "id": 259181425,
  "lat": 51.4078212,
  "lon": -2.4887866
},
{
  "type": "node",
  "id": 259181429,
  "lat": 51.4070966,
  "lon": -2.4889403
},
{
  "type": "node",
  "id": 259181431,
  "lat": 51.4069483,
  "lon": -2.4890376
},
{
  "type": "node",
  "id": 259181667,
  "lat": 51.4075021,
  "lon": -2.4888613
},
{
  "type": "node",
  "id": 259181668,
  "lat": 51.4075638,
  "lon": -2.4898371
},
{
  "type": "node",
  "id": 259181680,
  "lat": 51.4070690,
  "lon": -2.4899001
},
{
  "type": "node",
  "id": 259181709,
  "lat": 51.4078201,
  "lon": -2.4877267
},
{
  "type": "node",
  "id": 259182434,
  "lat": 51.4054967,
  "lon": -2.4896416
},
{
  "type": "node",
  "id": 259182437,
  "lat": 51.4049735,
  "lon": -2.4858115
},
{
  "type": "node",
  "id": 259182438,
  "lat": 51.4047161,
  "lon": -2.4849941
},
{
  "type": "node",
  "id": 259182439,
  "lat": 51.4043937,
  "lon": -2.4843087
},
{
  "type": "node",
  "id": 259182520,
  "lat": 51.4065511,
  "lon": -2.4895447
},
{
  "type": "node",
  "id": 259182521,
  "lat": 51.4064080,
  "lon": -2.4892072
},
{
  "type": "node",
  "id": 259182523,
  "lat": 51.4063485,
  "lon": -2.4882842
},
{
  "type": "node",
  "id": 259182524,
  "lat": 51.4062534,
  "lon": -2.4877768
},
{
  "type": "node",
  "id": 259182525,
  "lat": 51.4061511,
  "lon": -2.4874582
},
{
  "type": "node",
  "id": 259182526,
  "lat": 51.4056462,
  "lon": -2.4859480
},
{
  "type": "node",
  "id": 259182527,
  "lat": 51.4054180,
  "lon": -2.4852367
},
{
  "type": "node",
  "id": 259182572,
  "lat": 51.4070924,
  "lon": -2.4887594
},
{
  "type": "node",
  "id": 259182573,
  "lat": 51.4070838,
  "lon": -2.4882143
},
{
  "type": "node",
  "id": 259182575,
  "lat": 51.4070993,
  "lon": -2.4863426
},
{
  "type": "node",
  "id": 259182576,
  "lat": 51.4071574,
  "lon": -2.4859739
},
{
  "type": "node",
  "id": 259182577,
  "lat": 51.4072217,
  "lon": -2.4857513
},
{
  "type": "node",
  "id": 259182579,
  "lat": 51.4074612,
  "lon": -2.4847102
},
{
  "type": "node",
  "id": 259182580,
  "lat": 51.4074605,
  "lon": -2.4842117
},
{
  "type": "node",
  "id": 259182581,
  "lat": 51.4073562,
  "lon": -2.4838410
},
{
  "type": "node",
  "id": 259182582,
  "lat": 51.4060475,
  "lon": -2.4838865
},
{
  "type": "node",
  "id": 259182588,
  "lat": 51.4062978,
  "lon": -2.4873296
},
{
  "type": "node",
  "id": 259182589,
  "lat": 51.4063880,
  "lon": -2.4888797
},
{
  "type": "node",
  "id": 259182591,
  "lat": 51.4056719,
  "lon": -2.4893593
},
{
  "type": "node",
  "id": 259182599,
  "lat": 51.4060737,
  "lon": -2.4875874
},
{
  "type": "node",
  "id": 259182600,
  "lat": 51.4055449,
  "lon": -2.4875791
},
{
  "type": "node",
  "id": 259182624,
  "lat": 51.4070003,
  "lon": -2.4854319
},
{
  "type": "node",
  "id": 259182625,
  "lat": 51.4067243,
  "lon": -2.4854696
},
{
  "type": "node",
  "id": 259182680,
  "lat": 51.4082093,
  "lon": -2.4858355
},
{
  "type": "node",
  "id": 259182681,
  "lat": 51.4080574,
  "lon": -2.4859454
},
{
  "type": "node",
  "id": 259182682,
  "lat": 51.4073325,
  "lon": -2.4858280
},
{
  "type": "node",
  "id": 259182882,
  "lat": 51.4037484,
  "lon": -2.4863535
},
{
  "type": "node",
  "id": 259182931,
  "lat": 51.4048093,
  "lon": -2.4891191
},
{
  "type": "node",
  "id": 259182933,
  "lat": 51.4046803,
  "lon": -2.4870633
},
{
  "type": "node",
  "id": 259182934,
  "lat": 51.4044768,
  "lon": -2.4871462
},
{
  "type": "node",
  "id": 259182935,
  "lat": 51.4038753,
  "lon": -2.4873995
},
{
  "type": "node",
  "id": 259182987,
  "lat": 51.4046502,
  "lon": -2.4860657
},
{
  "type": "node",
  "id": 259182988,
  "lat": 51.4043640,
  "lon": -2.4861959
},
{
  "type": "node",
  "id": 259183012,
  "lat": 51.4048617,
  "lon": -2.4879714
},
{
  "type": "node",
  "id": 259183013,
  "lat": 51.4046404,
  "lon": -2.4880529
},
{
  "type": "node",
  "id": 259183168,
  "lat": 51.4039437,
  "lon": -2.4902268
},
{
  "type": "node",
  "id": 259183169,
  "lat": 51.4036160,
  "lon": -2.4896752
},
{
  "type": "node",
  "id": 259183171,
  "lat": 51.4032660,
  "lon": -2.4880693
},
{
  "type": "node",
  "id": 285967958,
  "lat": 51.4088364,
  "lon": -2.4876379
},
{
  "type": "node",
  "id": 285968093,
  "lat": 51.4079846,
  "lon": -2.4839727
},
{
  "type": "node",
  "id": 285976530,
  "lat": 51.4070977,
  "lon": -2.4868948
},
{
  "type": "node",
  "id": 285977639,
  "lat": 51.4077984,
  "lon": -2.4869446
},
{
  "type": "node",
  "id": 366218556,
  "lat": 51.4055116,
  "lon": -2.4893496
},
{
  "type": "node",
  "id": 366218557,
  "lat": 51.4061752,
  "lon": -2.4875301
},
{
  "type": "node",
  "id": 366218558,
  "lat": 51.4077257,
  "lon": -2.4869601
},
{
  "type": "node",
  "id": 366218559,
  "lat": 51.4071038,
  "lon": -2.4871483
},
{
  "type": "node",
  "id": 366218561,
  "lat": 51.4073014,
  "lon": -2.4855374
},
{
  "type": "node",
  "id": 366218566,
  "lat": 51.4076542,
  "lon": -2.4869724
},
{
  "type": "node",
  "id": 1234890327,
  "lat": 51.4064964,
  "lon": -2.4846588
},
{
  "type": "node",
  "id": 1234890365,
  "lat": 51.4064921,
  "lon": -2.4838321
},
{
  "type": "node",
  "id": 1234890397,
  "lat": 51.4045675,
  "lon": -2.4839352
},
{
  "type": "node",
  "id": 1234890403,
  "lat": 51.4087679,
  "lon": -2.4882072
},
{
  "type": "node",
  "id": 1234890423,
  "lat": 51.4045007,
  "lon": -2.4840653
},
{
  "type": "node",
  "id": 1413096171,
  "lat": 51.4074294,
  "lon": -2.4850346
},
{
  "type": "node",
  "id": 1413096181,
  "lat": 51.4074252,
  "lon": -2.4838952
},
{
  "type": "node",
  "id": 1413096198,
  "lat": 51.4074366,
  "lon": -2.4839701
},
{
  "type": "node",
  "id": 1720327196,
  "lat": 51.4075430,
  "lon": -2.4902622
},
{
  "type": "node",
  "id": 1720327197,
  "lat": 51.4075576,
  "lon": -2.4900225
},
{
  "type": "node",
  "id": 1720327211,
  "lat": 51.4080844,
  "lon": -2.4899709
},
{
  "type": "node",
  "id": 1720327215,
  "lat": 51.4080847,
  "lon": -2.4898465
},
{
  "type": "node",
  "id": 1720327241,
  "lat": 51.4080870,
  "lon": -2.4897310
},
{
  "type": "node",
  "id": 1839804205,
  "lat": 51.4039768,
  "lon": -2.4842406
},
{
  "type": "node",
  "id": 1839804209,
  "lat": 51.4037771,
  "lon": -2.4899942
},
{
  "type": "node",
  "id": 1839804211,
  "lat": 51.4032774,
  "lon": -2.4842298
},
{
  "type": "node",
  "id": 1839804215,
  "lat": 51.4033287,
  "lon": -2.4884836
},
{
  "type": "node",
  "id": 1839804221,
  "lat": 51.4034849,
  "lon": -2.4842862
},
{
  "type": "node",
  "id": 1839804224,
  "lat": 51.4033669,
  "lon": -2.4842352
},
{
  "type": "node",
  "id": 1839804226,
  "lat": 51.4036129,
  "lon": -2.4843264
},
{
  "type": "node",
  "id": 1839804230,
  "lat": 51.4038697,
  "lon": -2.4842929
},
{
  "type": "node",
  "id": 1839804232,
  "lat": 51.4037426,
  "lon": -2.4843318
},
{
  "type": "node",
  "id": 1839804242,
  "lat": 51.4045717,
  "lon": -2.4845611
},
{
  "type": "node",
  "id": 1839804246,
  "lat": 51.4040898,
  "lon": -2.4842124
},
{
  "type": "node",
  "id": 1839804263,
  "lat": 51.4042102,
  "lon": -2.4842084
},
{
  "type": "node",
  "id": 1839804265,
  "lat": 51.4043349,
  "lon": -2.4842660
},
{
  "type": "node",
  "id": 1839806052,
  "lat": 51.4036121,
  "lon": -2.4855455
},
{
  "type": "node",
  "id": 1839806071,
  "lat": 51.4036536,
  "lon": -2.4856851
},
{
  "type": "node",
  "id": 1839806074,
  "lat": 51.4035819,
  "lon": -2.4853872
},
{
  "type": "node",
  "id": 1839806082,
  "lat": 51.4036498,
  "lon": -2.4852354
},
{
  "type": "node",
  "id": 1839806088,
  "lat": 51.4036049,
  "lon": -2.4852870
},
{
  "type": "node",
  "id": 1839845590,
  "lat": 51.4046523,
  "lon": -2.4893485
},
{
  "type": "node",
  "id": 1839845592,
  "lat": 51.4046416,
  "lon": -2.4895591
},
{
  "type": "node",
  "id": 1839845596,
  "lat": 51.4047917,
  "lon": -2.4898289
},
{
  "type": "node",
  "id": 1839845598,
  "lat": 51.4046111,
  "lon": -2.4896713
},
{
  "type": "node",
  "id": 1839845601,
  "lat": 51.4046364,
  "lon": -2.4898026
},
{
  "type": "node",
  "id": 1839845603,
  "lat": 51.4049902,
  "lon": -2.4892161
},
{
  "type": "node",
  "id": 1839845612,
  "lat": 51.4052091,
  "lon": -2.4894774
},
{
  "type": "node",
  "id": 1839845614,
  "lat": 51.4041224,
  "lon": -2.4851914
},
{
  "type": "node",
  "id": 1839845616,
  "lat": 51.4040696,
  "lon": -2.4851878
},
{
  "type": "node",
  "id": 1839845618,
  "lat": 51.4041906,
  "lon": -2.4848669
},
{
  "type": "node",
  "id": 1839845620,
  "lat": 51.4045178,
  "lon": -2.4844520
},
{
  "type": "node",
  "id": 1839845626,
  "lat": 51.4038999,
  "lon": -2.4851673
},
{
  "type": "node",
  "id": 1839845628,
  "lat": 51.4055113,
  "lon": -2.4873216
},
{
  "type": "node",
  "id": 1839845630,
  "lat": 51.4056602,
  "lon": -2.4875403
},
{
  "type": "node",
  "id": 1839845632,
  "lat": 51.4047315,
  "lon": -2.4899473
},
{
  "type": "node",
  "id": 1839845634,
  "lat": 51.4039852,
  "lon": -2.4851820
},
{
  "type": "node",
  "id": 1839845636,
  "lat": 51.4051844,
  "lon": -2.4845919
},
{
  "type": "node",
  "id": 1839845638,
  "lat": 51.4037025,
  "lon": -2.4852206
},
{
  "type": "node",
  "id": 1839845646,
  "lat": 51.4047750,
  "lon": -2.4900086
},
{
  "type": "node",
  "id": 1839845648,
  "lat": 51.4042002,
  "lon": -2.4848414
},
{
  "type": "node",
  "id": 1857929965,
  "lat": 51.4043679,
  "lon": -2.4891641
},
{
  "type": "node",
  "id": 1857929967,
  "lat": 51.4047277,
  "lon": -2.4870809
},
{
  "type": "node",
  "id": 1857929973,
  "lat": 51.4047557,
  "lon": -2.4871431
},
{
  "type": "node",
  "id": 1857929978,
  "lat": 51.4045787,
  "lon": -2.4879195
},
{
  "type": "node",
  "id": 1857929979,
  "lat": 51.4041063,
  "lon": -2.4891800
},
{
  "type": "node",
  "id": 1857929981,
  "lat": 51.4046189,
  "lon": -2.4880282
},
{
  "type": "node",
  "id": 1857929991,
  "lat": 51.4046191,
  "lon": -2.4897562
},
{
  "type": "node",
  "id": 1857929993,
  "lat": 51.4048621,
  "lon": -2.4880992
},
{
  "type": "node",
  "id": 1857930001,
  "lat": 51.4040831,
  "lon": -2.4888793
},
{
  "type": "node",
  "id": 1857930005,
  "lat": 51.4049119,
  "lon": -2.4891449
},
{
  "type": "node",
  "id": 1857930007,
  "lat": 51.4040576,
  "lon": -2.4886570
},
{
  "type": "node",
  "id": 1857930009,
  "lat": 51.4040175,
  "lon": -2.4884672
},
{
  "type": "node",
  "id": 1857930011,
  "lat": 51.4054165,
  "lon": -2.4896320
},
{
  "type": "node",
  "id": 1857930015,
  "lat": 51.4038258,
  "lon": -2.4892124
},
{
  "type": "node",
  "id": 1857930029,
  "lat": 51.4063273,
  "lon": -2.4888772
},
{
  "type": "node",
  "id": 1857930031,
  "lat": 51.4055278,
  "lon": -2.4900929
},
{
  "type": "node",
  "id": 1857930034,
  "lat": 51.4057873,
  "lon": -2.4893142
},
{
  "type": "node",
  "id": 1857930036,
  "lat": 51.4035062,
  "lon": -2.4893268
},
{
  "type": "node",
  "id": 1857930040,
  "lat": 51.4046255,
  "lon": -2.4870770
},
{
  "type": "node",
  "id": 1857930042,
  "lat": 51.4062434,
  "lon": -2.4889141
},
{
  "type": "node",
  "id": 1857930044,
  "lat": 51.4041012,
  "lon": -2.4890597
},
{
  "type": "node",
  "id": 1857930053,
  "lat": 51.4039262,
  "lon": -2.4890702
},
{
  "type": "node",
  "id": 1857930055,
  "lat": 51.4034610,
  "lon": -2.4891560
},
{
  "type": "node",
  "id": 1857930058,
  "lat": 51.4044859,
  "lon": -2.4861405
},
{
  "type": "node",
  "id": 2104835773,
  "lat": 51.4047650,
  "lon": -2.4839245
},
{
  "type": "node",
  "id": 2104835777,
  "lat": 51.4047684,
  "lon": -2.4840694
},
{
  "type": "node",
  "id": 2104835778,
  "lat": 51.4052758,
  "lon": -2.4845134
},
{
  "type": "node",
  "id": 2104835779,
  "lat": 51.4048587,
  "lon": -2.4841498
},
{
  "type": "node",
  "id": 2104835780,
  "lat": 51.4048035,
  "lon": -2.4841472
},
{
  "type": "node",
  "id": 2104835781,
  "lat": 51.4049942,
  "lon": -2.4840452
},
{
  "type": "node",
  "id": 2104835782,
  "lat": 51.4048427,
  "lon": -2.4838385
},
{
  "type": "node",
  "id": 2104835783,
  "lat": 51.4047566,
  "lon": -2.4839782
},
{
  "type": "node",
  "id": 2104835799,
  "lat": 51.4051853,
  "lon": -2.4842354
},
{
  "type": "node",
  "id": 2104835800,
  "lat": 51.4053709,
  "lon": -2.4841140
},
{
  "type": "node",
  "id": 2104835801,
  "lat": 51.4054521,
  "lon": -2.4843500
},
{
  "type": "node",
  "id": 2104835803,
  "lat": 51.4050587,
  "lon": -2.4838468
},
{
  "type": "node",
  "id": 2104836672,
  "lat": 51.4058806,
  "lon": -2.4839660
},
{
  "type": "node",
  "id": 2104866696,
  "lat": 51.4061805,
  "lon": -2.4841767
},
{
  "type": "node",
  "id": 2104866699,
  "lat": 51.4054966,
  "lon": -2.4851952
},
{
  "type": "node",
  "id": 2104866706,
  "lat": 51.4053230,
  "lon": -2.4852891
},
{
  "type": "node",
  "id": 2104866708,
  "lat": 51.4067494,
  "lon": -2.4844342
},
{
  "type": "node",
  "id": 2104866709,
  "lat": 51.4058044,
  "lon": -2.4850085
},
{
  "type": "node",
  "id": 2104866712,
  "lat": 51.4057876,
  "lon": -2.4850174
},
{
  "type": "node",
  "id": 2104866713,
  "lat": 51.4056413,
  "lon": -2.4851040
},
{
  "type": "node",
  "id": 2104866715,
  "lat": 51.4059552,
  "lon": -2.4842161
},
{
  "type": "node",
  "id": 2104866716,
  "lat": 51.4059563,
  "lon": -2.4843448
},
{
  "type": "node",
  "id": 2104866721,
  "lat": 51.4061905,
  "lon": -2.4838475
},
{
  "type": "node",
  "id": 2104866722,
  "lat": 51.4069435,
  "lon": -2.4843832
},
{
  "type": "node",
  "id": 2104866724,
  "lat": 51.4067494,
  "lon": -2.4838348
},
{
  "type": "node",
  "id": 2104881004,
  "lat": 51.4062667,
  "lon": -2.4847346
},
{
  "type": "node",
  "id": 2104881005,
  "lat": 51.4091229,
  "lon": -2.4841092
},
{
  "type": "node",
  "id": 2104881006,
  "lat": 51.4058168,
  "lon": -2.4858431
},
{
  "type": "node",
  "id": 2104881021,
  "lat": 51.4074001,
  "lon": -2.4838602
},
{
  "type": "node",
  "id": 2104881022,
  "lat": 51.4080798,
  "lon": -2.4839663
},
{
  "type": "node",
  "id": 2104881044,
  "lat": 51.4066239,
  "lon": -2.4846273
},
{
  "type": "node",
  "id": 2104890934,
  "lat": 51.4073724,
  "lon": -2.4852928
},
{
  "type": "node",
  "id": 2104890936,
  "lat": 51.4086873,
  "lon": -2.4840517
},
{
  "type": "node",
  "id": 2104890953,
  "lat": 51.4068800,
  "lon": -2.4854416
},
{
  "type": "node",
  "id": 2104890956,
  "lat": 51.4071716,
  "lon": -2.4854510
},
{
  "type": "node",
  "id": 2104897145,
  "lat": 51.4081534,
  "lon": -2.4839722
},
{
  "type": "node",
  "id": 2104897171,
  "lat": 51.4081247,
  "lon": -2.4855916
},
{
  "type": "node",
  "id": 2104897195,
  "lat": 51.4082351,
  "lon": -2.4856292
},
{
  "type": "node",
  "id": 2104897232,
  "lat": 51.4081421,
  "lon": -2.4859094
},
{
  "type": "node",
  "id": 2104919897,
  "lat": 51.4066944,
  "lon": -2.4893266
},
{
  "type": "node",
  "id": 2104919904,
  "lat": 51.4082418,
  "lon": -2.4861843
},
{
  "type": "node",
  "id": 2104919906,
  "lat": 51.4081807,
  "lon": -2.4859670
},
{
  "type": "node",
  "id": 2104919908,
  "lat": 51.4082359,
  "lon": -2.4861159
},
{
  "type": "node",
  "id": 2104919909,
  "lat": 51.4069393,
  "lon": -2.4871587
},
{
  "type": "node",
  "id": 2104919910,
  "lat": 51.4082125,
  "lon": -2.4860408
},
{
  "type": "node",
  "id": 2104919912,
  "lat": 51.4080961,
  "lon": -2.4877052
},
{
  "type": "node",
  "id": 2104919913,
  "lat": 51.4081799,
  "lon": -2.4864820
},
{
  "type": "node",
  "id": 2104919915,
  "lat": 51.4071073,
  "lon": -2.4875664
},
{
  "type": "node",
  "id": 2104919917,
  "lat": 51.4071215,
  "lon": -2.4861430
},
{
  "type": "node",
  "id": 2104919920,
  "lat": 51.4085914,
  "lon": -2.4876602
},
{
  "type": "node",
  "id": 2104919921,
  "lat": 51.4081473,
  "lon": -2.4866175
},
{
  "type": "node",
  "id": 2104919927,
  "lat": 51.4086037,
  "lon": -2.4882828
},
{
  "type": "node",
  "id": 2104919929,
  "lat": 51.4082142,
  "lon": -2.4864445
},
{
  "type": "node",
  "id": 2104919942,
  "lat": 51.4087035,
  "lon": -2.4882285
},
{
  "type": "node",
  "id": 2104919944,
  "lat": 51.4075893,
  "lon": -2.4853850
},
{
  "type": "node",
  "id": 2104919950,
  "lat": 51.4076043,
  "lon": -2.4850792
},
{
  "type": "node",
  "id": 2104919960,
  "lat": 51.4064619,
  "lon": -2.4893913
},
{
  "type": "node",
  "id": 2104919972,
  "lat": 51.4062853,
  "lon": -2.4901350
},
{
  "type": "node",
  "id": 2123741868,
  "lat": 51.4067953,
  "lon": -2.4891832
},
{
  "type": "node",
  "id": 2261758158,
  "lat": 51.4057299,
  "lon": -2.4893497
},
{
  "type": "node",
  "id": 3127520496,
  "lat": 51.4046577,
  "lon": -2.4891024
},
{
  "type": "node",
  "id": 3127520506,
  "lat": 51.4045786,
  "lon": -2.4891529
},
{
  "type": "node",
  "id": 3127520508,
  "lat": 51.4045834,
  "lon": -2.4890613
},
{
  "type": "node",
  "id": 3127523563,
  "lat": 51.4036152,
  "lon": -2.4892470
},
{
  "type": "node",
  "id": 3936077353,
  "lat": 51.4089699,
  "lon": -2.4882367
},
{
  "type": "node",
  "id": 5940549237,
  "lat": 51.4037287,
  "lon": -2.4862146
},
{
  "type": "node",
  "id": 6404061929,
  "lat": 51.4079350,
  "lon": -2.4841896
},
{
  "type": "node",
  "id": 6404061930,
  "lat": 51.4079408,
  "lon": -2.4839959
},
{
  "type": "node",
  "id": 6404061932,
  "lat": 51.4074688,
  "lon": -2.4844113
},
{
  "type": "node",
  "id": 6404061933,
  "lat": 51.4078882,
  "lon": -2.4844632
},
{
  "type": "node",
  "id": 6994577002,
  "lat": 51.4070578,
  "lon": -2.4845411
},
{
  "type": "node",
  "id": 6994577003,
  "lat": 51.4070046,
  "lon": -2.4845307
},
{
  "type": "node",
  "id": 6994577004,
  "lat": 51.4066076,
  "lon": -2.4855176
},
{
  "type": "node",
  "id": 8091290554,
  "lat": 51.4062801,
  "lon": -2.4856524
},
{
  "type": "node",
  "id": 8091290555,
  "lat": 51.4062661,
  "lon": -2.4855936
},
{
  "type": "node",
  "id": 8091290556,
  "lat": 51.4062591,
  "lon": -2.4855309
},
{
  "type": "node",
  "id": 8091290557,
  "lat": 51.4062591,
  "lon": -2.4854368
},
{
  "type": "node",
  "id": 8091290558,
  "lat": 51.4062828,
  "lon": -2.4849755
},
{
  "type": "node",
  "id": 8662890504,
  "lat": 51.4096702,
  "lon": -2.4886293
},
{
  "type": "node",
  "id": 10775328436,
  "lat": 51.4054757,
  "lon": -2.4854165
},
{
  "type": "node",
  "id": 10775328440,
  "lat": 51.4048925,
  "lon": -2.4855544
},
{
  "type": "node",
  "id": 10829525058,
  "lat": 51.4082679,
  "lon": -2.4839843
},
{
  "type": "node",
  "id": 10852866785,
  "lat": 51.4070912,
  "lon": -2.4865231
},
{
  "type": "node",
  "id": 10852891647,
  "lat": 51.4071085,
  "lon": -2.4873503
},
{
  "type": "node",
  "id": 10852891648,
  "lat": 51.4065785,
  "lon": -2.4872258
},
{
  "type": "node",
  "id": 10852891649,
  "lat": 51.4067442,
  "lon": -2.4871882
},
{
  "type": "node",
  "id": 10852891650,
  "lat": 51.4062253,
  "lon": -2.4873818
},
{
  "type": "node",
  "id": 10852891651,
  "lat": 51.4062611,
  "lon": -2.4873504
},
{
  "type": "node",
  "id": 10852891652,
  "lat": 51.4064390,
  "lon": -2.4872717
},
{
  "type": "node",
  "id": 10852891714,
  "lat": 51.4070818,
  "lon": -2.4884848
},
{
  "type": "node",
  "id": 10852891715,
  "lat": 51.4070811,
  "lon": -2.4883476
},
{
  "type": "node",
  "id": 10852911562,
  "lat": 51.4075578,
  "lon": -2.4896607
},
{
  "type": "node",
  "id": 10861975593,
  "lat": 51.4064314,
  "lon": -2.4893043
},
{
  "type": "node",
  "id": 10861975594,
  "lat": 51.4063936,
  "lon": -2.4890448
},
{
  "type": "node",
  "id": 10861975595,
  "lat": 51.4063785,
  "lon": -2.4886242
},
{
  "type": "node",
  "id": 10861975596,
  "lat": 51.4063306,
  "lon": -2.4881542
},
{
  "type": "node",
  "id": 10861980572,
  "lat": 51.4062837,
  "lon": -2.4888889
},
{
  "type": "node",
  "id": 10861980607,
  "lat": 51.4064268,
  "lon": -2.4897905
},
{
  "type": "node",
  "id": 10864270305,
  "lat": 51.4055068,
  "lon": -2.4898713
},
{
  "type": "node",
  "id": 10864270306,
  "lat": 51.4053421,
  "lon": -2.4895916
},
{
  "type": "node",
  "id": 10864306778,
  "lat": 51.4042012,
  "lon": -2.4875938
},
{
  "type": "node",
  "id": 10864306779,
  "lat": 51.4041619,
  "lon": -2.4872788
},
{
  "type": "node",
  "id": 10921434601,
  "lat": 51.4039350,
  "lon": -2.4902146
},
{
  "type": "node",
  "id": 10921434602,
  "lat": 51.4038733,
  "lon": -2.4902857
},
{
  "type": "node",
  "id": 10921434603,
  "lat": 51.4038536,
  "lon": -2.4902969
},
{
  "type": "node",
  "id": 10921434604,
  "lat": 51.4034244,
  "lon": -2.4902075
},
{
  "type": "node",
  "id": 10921434605,
  "lat": 51.4034003,
  "lon": -2.4901831
},
{
  "type": "node",
  "id": 10921434606,
  "lat": 51.4033413,
  "lon": -2.4901129
},
{
  "type": "node",
  "id": 10921434607,
  "lat": 51.4032957,
  "lon": -2.4900713
},
{
  "type": "node",
  "id": 10930186725,
  "lat": 51.4088375,
  "lon": -2.4882025
},
{
  "type": "node",
  "id": 10930186728,
  "lat": 51.4083427,
  "lon": -2.4886046
},
{
  "type": "node",
  "id": 10930186729,
  "lat": 51.4081163,
  "lon": -2.4887272
},
{
  "type": "node",
  "id": 10930186730,
  "lat": 51.4081970,
  "lon": -2.4887048
},
{
  "type": "node",
  "id": 10942086955,
  "lat": 51.4080350,
  "lon": -2.4839640
},
{
  "type": "node",
  "id": 10942086958,
  "lat": 51.4080860,
  "lon": -2.4838836
},
{
  "type": "node",
  "id": 10942086959,
  "lat": 51.4080957,
  "lon": -2.4838538
},
{
  "type": "node",
  "id": 11217999829,
  "lat": 51.4093983,
  "lon": -2.4884715
},
{
  "type": "node",
  "id": 11219554932,
  "lat": 51.4065525,
  "lon": -2.4855403
},
{
  "type": "node",
  "id": 11219652438,
  "lat": 51.4059662,
  "lon": -2.4857816
},
{
  "type": "node",
  "id": 11222726660,
  "lat": 51.4061170,
  "lon": -2.4875707
},
{
  "type": "node",
  "id": 11222726661,
  "lat": 51.4060432,
  "lon": -2.4875878
},
{
  "type": "node",
  "id": 11222726662,
  "lat": 51.4057154,
  "lon": -2.4875411
},
{
  "type": "node",
  "id": 11224950062,
  "lat": 51.4043427,
  "lon": -2.4838943
},
{
  "type": "node",
  "id": 11224950063,
  "lat": 51.4043154,
  "lon": -2.4838588
},
{
  "type": "node",
  "id": 11393909761,
  "lat": 51.4046523,
  "lon": -2.4894538
},
{
  "type": "node",
  "id": 11393909762,
  "lat": 51.4048611,
  "lon": -2.4891234
},
{
  "type": "node",
  "id": 1413096182,
  "lat": 51.4075606,
  "lon": -2.4835425
},
{
  "type": "node",
  "id": 1413096194,
  "lat": 51.4074394,
  "lon": -2.4836217
},
{
  "type": "node",
  "id": 1413096205,
  "lat": 51.4078534,
  "lon": -2.4835532
},
{
  "type": "node",
  "id": 2104835774,
  "lat": 51.4048615,
  "lon": -2.4836869
},
{
  "type": "node",
  "id": 2104835784,
  "lat": 51.4047274,
  "lon": -2.4838017
},
{
  "type": "node",
  "id": 2104835785,
  "lat": 51.4048778,
  "lon": -2.4833817
},
{
  "type": "node",
  "id": 2104835787,
  "lat": 51.4048767,
  "lon": -2.4834109
},
{
  "type": "node",
  "id": 2104835788,
  "lat": 51.4048142,
  "lon": -2.4837273
},
{
  "type": "node",
  "id": 2104835796,
  "lat": 51.4048782,
  "lon": -2.4833528
},
{
  "type": "node",
  "id": 2104835809,
  "lat": 51.4057987,
  "lon": -2.4835777
},
{
  "type": "node",
  "id": 2104836668,
  "lat": 51.4056568,
  "lon": -2.4837999
},
{
  "type": "node",
  "id": 2104836669,
  "lat": 51.4057689,
  "lon": -2.4834699
},
{
  "type": "node",
  "id": 2104836670,
  "lat": 51.4058158,
  "lon": -2.4837126
},
{
  "type": "node",
  "id": 2104881026,
  "lat": 51.4074813,
  "lon": -2.4835442
},
{
  "type": "node",
  "id": 9845162104,
  "lat": 51.4081317,
  "lon": -2.4830542
},
{
  "type": "node",
  "id": 9845302418,
  "lat": 51.4078277,
  "lon": -2.4814875
},
{
  "type": "node",
  "id": 9845302425,
  "lat": 51.4078276,
  "lon": -2.4814449
},
{
  "type": "node",
  "id": 9845302429,
  "lat": 51.4078356,
  "lon": -2.4815277
},
{
  "type": "node",
  "id": 9845302432,
  "lat": 51.4080447,
  "lon": -2.4825870
},
{
  "type": "node",
  "id": 9845302435,
  "lat": 51.4080330,
  "lon": -2.4825279
},
{
  "type": "node",
  "id": 10829525056,
  "lat": 51.4081168,
  "lon": -2.4837893
},
{
  "type": "node",
  "id": 10829525057,
  "lat": 51.4082793,
  "lon": -2.4837895
},
{
  "type": "node",
  "id": 11224950064,
  "lat": 51.4042628,
  "lon": -2.4835376
},
{
  "type": "node",
  "id": 259183303,
  "lat": 51.4001909,
  "lon": -2.4766593
},
{
  "type": "node",
  "id": 259183304,
  "lat": 51.4000445,
  "lon": -2.4763704
},
{
  "type": "node",
  "id": 259183305,
  "lat": 51.3999702,
  "lon": -2.4763236
},
{
  "type": "node",
  "id": 259183307,
  "lat": 51.3998523,
  "lon": -2.4751067
},
{
  "type": "node",
  "id": 259183308,
  "lat": 51.3999485,
  "lon": -2.4748948
},
{
  "type": "node",
  "id": 259183309,
  "lat": 51.4002953,
  "lon": -2.4747059
},
{
  "type": "node",
  "id": 259183310,
  "lat": 51.3998360,
  "lon": -2.4722879
},
{
  "type": "node",
  "id": 259183311,
  "lat": 51.3998362,
  "lon": -2.4718163
},
{
  "type": "node",
  "id": 259183312,
  "lat": 51.3999396,
  "lon": -2.4707770
},
{
  "type": "node",
  "id": 663641186,
  "lat": 51.3999009,
  "lon": -2.4749308
},
{
  "type": "node",
  "id": 663641187,
  "lat": 51.4002536,
  "lon": -2.4747723
},
{
  "type": "node",
  "id": 663641188,
  "lat": 51.4003171,
  "lon": -2.4746482
},
{
  "type": "node",
  "id": 663641189,
  "lat": 51.4003146,
  "lon": -2.4745718
},
{
  "type": "node",
  "id": 663641190,
  "lat": 51.3999074,
  "lon": -2.4727853
},
{
  "type": "node",
  "id": 663643952,
  "lat": 51.3999251,
  "lon": -2.4708500
},
{
  "type": "node",
  "id": 663692747,
  "lat": 51.4001265,
  "lon": -2.4764183
},
{
  "type": "node",
  "id": 663692748,
  "lat": 51.3999539,
  "lon": -2.4762105
},
{
  "type": "node",
  "id": 1842667326,
  "lat": 51.3998582,
  "lon": -2.4750122
},
{
  "type": "node",
  "id": 1842667338,
  "lat": 51.4001761,
  "lon": -2.4765320
},
{
  "type": "node",
  "id": 1857908958,
  "lat": 51.3998620,
  "lon": -2.4725353
},
{
  "type": "node",
  "id": 1857908965,
  "lat": 51.4001816,
  "lon": -2.4748158
},
{
  "type": "node",
  "id": 1857908990,
  "lat": 51.4001590,
  "lon": -2.4764669
},
{
  "type": "node",
  "id": 8067059299,
  "lat": 51.3999470,
  "lon": -2.4761353
},
{
  "type": "node",
  "id": 8067059303,
  "lat": 51.3999397,
  "lon": -2.4760568
},
{
  "type": "node",
  "id": 8067059307,
  "lat": 51.3998825,
  "lon": -2.4754344
},
{
  "type": "node",
  "id": 8233239848,
  "lat": 51.4000345,
  "lon": -2.4733430
},
{
  "type": "node",
  "id": 8233239859,
  "lat": 51.4000212,
  "lon": -2.4732845
},
{
  "type": "node",
  "id": 11765998609,
  "lat": 51.4000009,
  "lon": -2.4731956
},
{
  "type": "node",
  "id": 259181411,
  "lat": 51.4107695,
  "lon": -2.4899885
},
{
  "type": "node",
  "id": 259181412,
  "lat": 51.4103462,
  "lon": -2.4897034
},
{
  "type": "node",
  "id": 259181413,
  "lat": 51.4102109,
  "lon": -2.4895382
},
{
  "type": "node",
  "id": 259181414,
  "lat": 51.4097772,
  "lon": -2.4887391
},
{
  "type": "node",
  "id": 259181465,
  "lat": 51.4099759,
  "lon": -2.4890771
},
{
  "type": "node",
  "id": 2104952627,
  "lat": 51.4101091,
  "lon": -2.4893868
},
{
  "type": "node",
  "id": 2104952630,
  "lat": 51.4104941,
  "lon": -2.4898200
},
{
  "type": "node",
  "id": 6562038723,
  "lat": 51.4110561,
  "lon": -2.4901626
},
{
  "type": "node",
  "id": 6562038730,
  "lat": 51.4112530,
  "lon": -2.4902828
},
{
  "type": "node",
  "id": 8662890505,
  "lat": 51.4098828,
  "lon": -2.4888806
},
{
  "type": "node",
  "id": 10930186726,
  "lat": 51.4100328,
  "lon": -2.4892159
},
{
  "type": "node",
  "id": 11217988748,
  "lat": 51.4105653,
  "lon": -2.4898635
}

  ]
}